{
  "type": "FeatureCollection",
  "features": [
    {
      "type": "Feature",
      "properties": {
        "norad_id": 15362,
        "name": "NOVA 3",
        "group": "nnss",
        "lat": 17.613845035922314,
        "lon": -99.52742035431169,
        "alt_km": 1196.4041753503689,
        "timestamp": "2025-12-04T03:47:54.811886+00:00",
        "meta_object_name": "NOVA 3",
        "meta_object_id": "1984-110A",
        "meta_epoch": "2025-12-03T16:44:18.682080",
        "meta_mean_motion": 13.2304267,
        "meta_eccentricity": 0.0031227,
        "meta_inclination": 90.1226,
        "meta_ra_of_asc_node": 80.4282,
        "meta_arg_of_pericenter": 357.3502,
        "meta_mean_anomaly": 131.1814,
        "meta_ephemeris_type": 0,
        "meta_classification_type": "U",
        "meta_norad_cat_id": 15362,
        "meta_element_set_no": 999,
        "meta_rev_at_epoch": 98579,
        "meta_bstar": 4.6821e-05,
        "meta_mean_motion_dot": 2.8e-07,
        "meta_mean_motion_ddot": 0,
        "tle_line1": "1 15362U 84110A   25337.69743845  .00000028  00000+0  46821-4 0  9991",
        "tle_line2": "2 15362  90.1226  80.4282 0031227 357.3502 131.1814 13.23042670985798"
      },
      "geometry": {
        "type": "Point",
        "coordinates": [
          -99.52742035431169,
          17.613845035922314
        ]
      }
    },
    {
      "type": "Feature",
      "properties": {
        "norad_id": 15935,
        "name": "OSCAR 30",
        "group": "nnss",
        "lat": -22.928529611908388,
        "lon": -80.36284204307971,
        "alt_km": 1138.2123238201502,
        "timestamp": "2025-12-04T03:47:54.811900+00:00",
        "meta_object_name": "OSCAR 30",
        "meta_object_id": "1985-066A",
        "meta_epoch": "2025-12-03T20:12:26.455104",
        "meta_mean_motion": 13.36075964,
        "meta_eccentricity": 0.0169352,
        "meta_inclination": 90.1646,
        "meta_ra_of_asc_node": 99.7017,
        "meta_arg_of_pericenter": 108.7393,
        "meta_mean_anomaly": 11.6725,
        "meta_ephemeris_type": 0,
        "meta_classification_type": "U",
        "meta_norad_cat_id": 15935,
        "meta_element_set_no": 999,
        "meta_rev_at_epoch": 96334,
        "meta_bstar": 0.0002066,
        "meta_mean_motion_dot": 1.25e-06,
        "meta_mean_motion_ddot": 0,
        "tle_line1": "1 15935U 85066A   25337.84197286  .00000125  00000+0  20660-3 0  9997",
        "tle_line2": "2 15935  90.1646  99.7017 0169352 108.7393  11.6725 13.36075964963342"
      },
      "geometry": {
        "type": "Point",
        "coordinates": [
          -80.36284204307971,
          -22.928529611908388
        ]
      }
    },
    {
      "type": "Feature",
      "properties": {
        "norad_id": 15936,
        "name": "OSCAR 24",
        "group": "nnss",
        "lat": -78.95236384539885,
        "lon": 93.06940857125156,
        "alt_km": 1256.2789550073148,
        "timestamp": "2025-12-04T03:47:54.811911+00:00",
        "meta_object_name": "OSCAR 24",
        "meta_object_id": "1985-066B",
        "meta_epoch": "2025-12-03T19:48:06.613056",
        "meta_mean_motion": 13.35933574,
        "meta_eccentricity": 0.0170384,
        "meta_inclination": 90.1787,
        "meta_ra_of_asc_node": 92.1477,
        "meta_arg_of_pericenter": 115.2258,
        "meta_mean_anomaly": 3.8692,
        "meta_ephemeris_type": 0,
        "meta_classification_type": "U",
        "meta_norad_cat_id": 15936,
        "meta_element_set_no": 999,
        "meta_rev_at_epoch": 96524,
        "meta_bstar": 0.00014632,
        "meta_mean_motion_dot": 9.2e-07,
        "meta_mean_motion_ddot": 0,
        "tle_line1": "1 15936U 85066B   25337.82507654  .00000092  00000+0  14632-3 0  9995",
        "tle_line2": "2 15936  90.1787  92.1477 0170384 115.2258   3.8692 13.35933574965242"
      },
      "geometry": {
        "type": "Point",
        "coordinates": [
          93.06940857125156,
          -78.95236384539885
        ]
      }
    },
    {
      "type": "Feature",
      "properties": {
        "norad_id": 17070,
        "name": "POLAR BEAR",
        "group": "nnss",
        "lat": -16.498255682245333,
        "lon": -175.99654307946062,
        "alt_km": 1013.6313103053681,
        "timestamp": "2025-12-04T03:47:54.811922+00:00",
        "meta_object_name": "POLAR BEAR",
        "meta_object_id": "1986-088A",
        "meta_epoch": "2025-12-03T14:10:11.074944",
        "meta_mean_motion": 13.75247908,
        "meta_eccentricity": 0.004031,
        "meta_inclination": 89.618,
        "meta_ra_of_asc_node": 184.1395,
        "meta_arg_of_pericenter": 145.9018,
        "meta_mean_anomaly": 268.1317,
        "meta_ephemeris_type": 0,
        "meta_classification_type": "U",
        "meta_norad_cat_id": 17070,
        "meta_element_set_no": 999,
        "meta_rev_at_epoch": 95853,
        "meta_bstar": 0.00015194,
        "meta_mean_motion_dot": 1.58e-06,
        "meta_mean_motion_ddot": 0,
        "tle_line1": "1 17070U 86088A   25337.59040596  .00000158  00000+0  15194-3 0  9999",
        "tle_line2": "2 17070  89.6180 184.1395 0040310 145.9018 268.1317 13.75247908958530"
      },
      "geometry": {
        "type": "Point",
        "coordinates": [
          -175.99654307946062,
          -16.498255682245333
        ]
      }
    },
    {
      "type": "Feature",
      "properties": {
        "norad_id": 18361,
        "name": "OSCAR 27",
        "group": "nnss",
        "lat": 83.19741675992529,
        "lon": -97.90832106583296,
        "alt_km": 1151.0134398205955,
        "timestamp": "2025-12-04T03:47:54.811932+00:00",
        "meta_object_name": "OSCAR 27",
        "meta_object_id": "1987-080A",
        "meta_epoch": "2025-12-03T18:22:58.880064",
        "meta_mean_motion": 13.44903674,
        "meta_eccentricity": 0.0102384,
        "meta_inclination": 90.3742,
        "meta_ra_of_asc_node": 78.9366,
        "meta_arg_of_pericenter": 249.8578,
        "meta_mean_anomaly": 109.1532,
        "meta_ephemeris_type": 0,
        "meta_classification_type": "U",
        "meta_norad_cat_id": 18361,
        "meta_element_set_no": 999,
        "meta_rev_at_epoch": 87436,
        "meta_bstar": 0.00021625,
        "meta_mean_motion_dot": 1.38e-06,
        "meta_mean_motion_ddot": 0,
        "tle_line1": "1 18361U 87080A   25337.76595926  .00000138  00000+0  21625-3 0  9991",
        "tle_line2": "2 18361  90.3742  78.9366 0102384 249.8578 109.1532 13.44903674874366"
      },
      "geometry": {
        "type": "Point",
        "coordinates": [
          -97.90832106583296,
          83.19741675992529
        ]
      }
    },
    {
      "type": "Feature",
      "properties": {
        "norad_id": 18362,
        "name": "OSCAR 29",
        "group": "nnss",
        "lat": 56.89087907103555,
        "lon": -100.0142389753616,
        "alt_km": 1153.6611889555043,
        "timestamp": "2025-12-04T03:47:54.811942+00:00",
        "meta_object_name": "OSCAR 29",
        "meta_object_id": "1987-080B",
        "meta_epoch": "2025-12-03T18:49:07.067712",
        "meta_mean_motion": 13.44445734,
        "meta_eccentricity": 0.0103699,
        "meta_inclination": 90.3756,
        "meta_ra_of_asc_node": 79.3954,
        "meta_arg_of_pericenter": 273.232,
        "meta_mean_anomaly": 200.5492,
        "meta_ephemeris_type": 0,
        "meta_classification_type": "U",
        "meta_norad_cat_id": 18362,
        "meta_element_set_no": 999,
        "meta_rev_at_epoch": 87389,
        "meta_bstar": 0.00018228,
        "meta_mean_motion_dot": 1.17e-06,
        "meta_mean_motion_ddot": 0,
        "tle_line1": "1 18362U 87080B   25337.78410958  .00000117  00000+0  18228-3 0  9997",
        "tle_line2": "2 18362  90.3756  79.3954 0103699 273.2320 200.5492 13.44445734873892"
      },
      "geometry": {
        "type": "Point",
        "coordinates": [
          -100.0142389753616,
          56.89087907103555
        ]
      }
    },
    {
      "type": "Feature",
      "properties": {
        "norad_id": 19070,
        "name": "OSCAR 23",
        "group": "nnss",
        "lat": 51.94922826317012,
        "lon": 15.714502456040258,
        "alt_km": 1275.1024984699325,
        "timestamp": "2025-12-04T03:47:54.811952+00:00",
        "meta_object_name": "OSCAR 23",
        "meta_object_id": "1988-033A",
        "meta_epoch": "2025-12-03T15:30:12.246912",
        "meta_mean_motion": 13.27784975,
        "meta_eccentricity": 0.0188773,
        "meta_inclination": 90.3223,
        "meta_ra_of_asc_node": 16.1105,
        "meta_arg_of_pericenter": 205.2478,
        "meta_mean_anomaly": 280.4281,
        "meta_ephemeris_type": 0,
        "meta_classification_type": "U",
        "meta_norad_cat_id": 19070,
        "meta_element_set_no": 999,
        "meta_rev_at_epoch": 82132,
        "meta_bstar": 0.00021239,
        "meta_mean_motion_dot": 1.13e-06,
        "meta_mean_motion_ddot": 0,
        "tle_line1": "1 19070U 88033A   25337.64597508  .00000113  00000+0  21239-3 0  9997",
        "tle_line2": "2 19070  90.3223  16.1105 0188773 205.2478 280.4281 13.27784975821328"
      },
      "geometry": {
        "type": "Point",
        "coordinates": [
          15.714502456040258,
          51.94922826317012
        ]
      }
    }
  ]
}